{"type": "FeatureCollection", "features": [ {"type": "Feature", "properties": {"norad_id": 33153, "name": "INTELSAT 25 (IS-25)", "group": "intelsat", "lat": -1.4025508530916655, "lon": -58.6404638255457, "alt_km": 35767.81254419296, "timestamp": "2025-12-09T16:56:36.247952+00:00", "meta": {"OBJECT_NAME": "INTELSAT 25 (IS-25)", "OBJECT_ID": "2008-034A", "EPOCH": "2025-12-09T09:59:58.218720", "MEAN_MOTION": 1.00270316, "ECCENTRICITY": 0.0005395, "INCLINATION": 2.2193, "RA_OF_ASC_NODE": 82.6826, "ARG_OF_PERICENTER": 184.5292, "MEAN_ANOMALY": 289.6916, "EPHEMERIS_TYPE": 0, "CLASSIFICATION_TYPE": "U", "NORAD_CAT_ID": 33153, "ELEMENT_SET_NO": 999, "REV_AT_EPOCH": 6379, "BSTAR": 0, "MEAN_MOTION_DOT": -2.22e-06, "MEAN_MOTION_DDOT": 0}, "tle": {"line1": "1 33153U 08034A   25343.41664605 -.00000222  00000+0  00000+0 0  9994", "line2": "2 33153   2.2193  82.6826 0005395 184.5292 289.6916  1.00270316 63795"}}, "geometry": {"type": "Point", "coordinates": [-58.6404638255457, -1.4025508530916655]}}, {"type": "Feature", "properties": {"norad_id": 33376, "name": "GALAXY 19 (G-19)", "group": "intelsat", "lat": -0.03662706599676335, "lon": -124.16380651318816, "alt_km": 35773.93232305279, "timestamp": "2025-12-09T16:56:36.247964+00:00", "meta": {"OBJECT_NAME": "GALAXY 19 (G-19)", "OBJECT_ID": "2008-045A", "EPOCH": "2025-12-09T11:48:22.809888", "MEAN_MOTION": 1.00274881, "ECCENTRICITY": 0.0002943, "INCLINATION": 0.0185, "RA_OF_ASC_NODE": 316.3922, "ARG_OF_PERICENTER": 304.4394, "MEAN_ANOMALY": 257.7529, "EPHEMERIS_TYPE": 0, "CLASSIFICATION_TYPE": "U", "NORAD_CAT_ID": 33376, "ELEMENT_SET_NO": 999, "REV_AT_EPOCH": 6300, "BSTAR": 0, "MEAN_MOTION_DOT": -1.37e-06, "MEAN_MOTION_DDOT": 0}, "tle": {"line1": "1 33376U 08045A   25343.49193067 -.00000137  00000+0  00000+0 0  9995", "line2": "2 33376   0.0185 316.3922 0002943 304.4394 257.7529  1.00274881 63006"}}, "geometry": {"type": "Point", "coordinates": [-124.16380651318816, -0.03662706599676335]}}, {"type": "Feature", "properties": {"norad_id": 35493, "name": "FM-5", "group": "intelsat", "lat": -0.02824407572461301, "lon": -113.29283566621642, "alt_km": 35785.506751139976, "timestamp": "2025-12-09T16:56:36.247976+00:00", "meta": {"OBJECT_NAME": "FM-5", "OBJECT_ID": "2009-034A", "EPOCH": "2025-12-09T12:27:37.558944", "MEAN_MOTION": 1.00270693, "ECCENTRICITY": 6.25e-05, "INCLINATION": 0.0203, "RA_OF_ASC_NODE": 288.1902, "ARG_OF_PERICENTER": 248.5035, "MEAN_ANOMALY": 2.5822, "EPHEMERIS_TYPE": 0, "CLASSIFICATION_TYPE": "U", "NORAD_CAT_ID": 35493, "ELEMENT_SET_NO": 999, "REV_AT_EPOCH": 4474, "BSTAR": 0, "MEAN_MOTION_DOT": -1.98e-06, "MEAN_MOTION_DDOT": 0}, "tle": {"line1": "1 35493U 09034A   25343.51918471 -.00000198  00000+0  00000+0 0  9990", "line2": "2 35493   0.0203 288.1902 0000625 248.5035   2.5822  1.00270693 44747"}}, "geometry": {"type": "Point", "coordinates": [-113.29283566621642, -0.02824407572461301]}}, {"type": "Feature", "properties": {"norad_id": 36097, "name": "INTELSAT 14 (IS-14)", "group": "intelsat", "lat": -0.02555005195705134, "lon": -72.14239061252138, "alt_km": 35776.03735101552, "timestamp": "2025-12-09T16:56:36.247988+00:00", "meta": {"OBJECT_NAME": "INTELSAT 14 (IS-14)", "OBJECT_ID": "2009-064A", "EPOCH": "2025-12-09T09:56:06.089568", "MEAN_MOTION": 1.00270397, "ECCENTRICITY": 0.0002672, "INCLINATION": 0.0102, "RA_OF_ASC_NODE": 346.8788, "ARG_OF_PERICENTER": 278.7591, "MEAN_ANOMALY": 276.7994, "EPHEMERIS_TYPE": 0, "CLASSIFICATION_TYPE": "U", "NORAD_CAT_ID": 36097, "ELEMENT_SET_NO": 999, "REV_AT_EPOCH": 5870, "BSTAR": 0, "MEAN_MOTION_DOT": -2.71e-06, "MEAN_MOTION_DDOT": 0}, "tle": {"line1": "1 36097U 09064A   25343.41395937 -.00000271  00000+0  00000+0 0  9991", "line2": "2 36097   0.0102 346.8788 0002672 278.7591 276.7994  1.00270397 58703"}}, "geometry": {"type": "Point", "coordinates": [-72.14239061252138, -0.02555005195705134]}}, {"type": "Feature", "properties": {"norad_id": 36106, "name": "INTELSAT 15 (IS-15)", "group": "intelsat", "lat": 0.03610498585179279, "lon": 58.00272830272534, "alt_km": 35795.562884834835, "timestamp": "2025-12-09T16:56:36.248000+00:00", "meta": {"OBJECT_NAME": "INTELSAT 15 (IS-15)", "OBJECT_ID": "2009-067A", "EPOCH": "2025-12-09T10:33:17.526816", "MEAN_MOTION": 1.00270891, "ECCENTRICITY": 0.0002479, "INCLINATION": 0.0286, "RA_OF_ASC_NODE": 285.8773, "ARG_OF_PERICENTER": 340.7496, "MEAN_ANOMALY": 55.276, "EPHEMERIS_TYPE": 0, "CLASSIFICATION_TYPE": "U", "NORAD_CAT_ID": 36106, "ELEMENT_SET_NO": 999, "REV_AT_EPOCH": 3932, "BSTAR": 0, "MEAN_MOTION_DOT": -1.83e-06, "MEAN_MOTION_DDOT": 0}, "tle": {"line1": "1 36106U 09067A   25343.43978619 -.00000183  00000+0  00000+0 0  9993", "line2": "2 36106   0.0286 285.8773 0002479 340.7496  55.2760  1.00270891 39329"}}, "geometry": {"type": "Point", "coordinates": [58.00272830272534, 0.03610498585179279]}}, {"type": "Feature", "properties": {"norad_id": 36131, "name": "DIRECTV 12", "group": "intelsat", "lat": 0.006650949450731383, "lon": -129.88449504360293, "alt_km": 35786.6713819205, "timestamp": "2025-12-09T16:56:36.248012+00:00", "meta": {"OBJECT_NAME": "DIRECTV 12", "OBJECT_ID": "2009-075A", "EPOCH": "2025-12-09T10:42:05.900832", "MEAN_MOTION": 1.00272635, "ECCENTRICITY": 5.42e-05, "INCLINATION": 0.0402, "RA_OF_ASC_NODE": 141.0164, "ARG_OF_PERICENTER": 200.367, "MEAN_ANOMALY": 154.8575, "EPHEMERIS_TYPE": 0, "CLASSIFICATION_TYPE": "U", "NORAD_CAT_ID": 36131, "ELEMENT_SET_NO": 999, "REV_AT_EPOCH": 4465, "BSTAR": 0, "MEAN_MOTION_DOT": -1.01e-06, "MEAN_MOTION_DDOT": 0}, "tle": {"line1": "1 36131U 09075A   25343.44590163 -.00000101  00000+0  00000+0 0  9995", "line2": "2 36131   0.0402 141.0164 0000542 200.3670 154.8575  1.00272635 44658"}}, "geometry": {"type": "Point", "coordinates": [-129.88449504360293, 0.006650949450731383]}}, {"type": "Feature", "properties": {"norad_id": 36397, "name": "INTELSAT 16 (IS-16)", "group": "intelsat", "lat": -0.02901998939118295, "lon": -103.36423018621645, "alt_km": 35776.9061443943, "timestamp": "2025-12-09T16:56:36.248024+00:00", "meta": {"OBJECT_NAME": "INTELSAT 16 (IS-16)", "OBJECT_ID": "2010-006A", "EPOCH": "2025-12-09T12:32:17.671200", "MEAN_MOTION": 1.00270281, "ECCENTRICITY": 0.0002284, "INCLINATION": 0.0146, "RA_OF_ASC_NODE": 310.5057, "ARG_OF_PERICENTER": 312.0313, "MEAN_ANOMALY": 287.8475, "EPHEMERIS_TYPE": 0, "CLASSIFICATION_TYPE": "U", "NORAD_CAT_ID": 36397, "ELEMENT_SET_NO": 999, "REV_AT_EPOCH": 5775, "BSTAR": 0, "MEAN_MOTION_DOT": -2.42e-06, "MEAN_MOTION_DDOT": 0}, "tle": {"line1": "1 36397U 10006A   25343.52242675 -.00000242  00000+0  00000+0 0  9992", "line2": "2 36397   0.0146 310.5057 0002284 312.0313 287.8475  1.00270281 57757"}}, "geometry": {"type": "Point", "coordinates": [-103.36423018621645, -0.02901998939118295]}}, {"type": "Feature", "properties": {"norad_id": 37185, "name": "XM-5", "group": "intelsat", "lat": -0.06579012889626251, "lon": -142.33915151575835, "alt_km": 35784.44260002329, "timestamp": "2025-12-09T16:56:36.248036+00:00", "meta": {"OBJECT_NAME": "XM-5", "OBJECT_ID": "2010-053A", "EPOCH": "2025-12-09T10:03:18.479232", "MEAN_MOTION": 1.00268417, "ECCENTRICITY": 0.0001533, "INCLINATION": 0.064, "RA_OF_ASC_NODE": 272.6303, "ARG_OF_PERICENTER": 238.8174, "MEAN_ANOMALY": 322.597, "EPHEMERIS_TYPE": 0, "CLASSIFICATION_TYPE": "U", "NORAD_CAT_ID": 37185, "ELEMENT_SET_NO": 999, "REV_AT_EPOCH": 5558, "BSTAR": 0, "MEAN_MOTION_DOT": -2e-07, "MEAN_MOTION_DDOT": 0}, "tle": {"line1": "1 37185U 10053A   25343.41896388 -.00000020  00000+0  00000+0 0  9998", "line2": "2 37185   0.0640 272.6303 0001533 238.8174 322.5970  1.00268417 55584"}}, "geometry": {"type": "Point", "coordinates": [-142.33915151575835, -0.06579012889626251]}}, {"type": "Feature", "properties": {"norad_id": 37238, "name": "INTELSAT 17 (IS-17)", "group": "intelsat", "lat": 0.025666240421593513, "lon": 38.8714083699756, "alt_km": 35793.73028288103, "timestamp": "2025-12-09T16:56:36.248048+00:00", "meta": {"OBJECT_NAME": "INTELSAT 17 (IS-17)", "OBJECT_ID": "2010-065B", "EPOCH": "2025-12-09T10:27:48.054240", "MEAN_MOTION": 1.00272328, "ECCENTRICITY": 0.0002448, "INCLINATION": 0.0152, "RA_OF_ASC_NODE": 284.7396, "ARG_OF_PERICENTER": 335.1997, "MEAN_ANOMALY": 41.4494, "EPHEMERIS_TYPE": 0, "CLASSIFICATION_TYPE": "U", "NORAD_CAT_ID": 37238, "ELEMENT_SET_NO": 999, "REV_AT_EPOCH": 5134, "BSTAR": 0, "MEAN_MOTION_DOT": 0, "MEAN_MOTION_DDOT": 0}, "tle": {"line1": "1 37238U 10065B   25343.43597285  .00000000  00000+0  00000+0 0  9993", "line2": "2 37238   0.0152 284.7396 0002448 335.1997  41.4494  1.00272328 51341"}}, "geometry": {"type": "Point", "coordinates": [38.8714083699756, 0.025666240421593513]}}, {"type": "Feature", "properties": {"norad_id": 37392, "name": "INTELSAT 28 (IS-28)", "group": "intelsat", "lat": -0.7897201274358571, "lon": -58.83606502699733, "alt_km": 35772.77079746779, "timestamp": "2025-12-09T16:56:36.248060+00:00", "meta": {"OBJECT_NAME": "INTELSAT 28 (IS-28)", "OBJECT_ID": "2011-016A", "EPOCH": "2025-12-09T09:59:50.732160", "MEAN_MOTION": 1.00272298, "ECCENTRICITY": 0.0003983, "INCLINATION": 1.3162, "RA_OF_ASC_NODE": 85.0937, "ARG_OF_PERICENTER": 178.1199, "MEAN_ANOMALY": 293.4551, "EPHEMERIS_TYPE": 0, "CLASSIFICATION_TYPE": "U", "NORAD_CAT_ID": 37392, "ELEMENT_SET_NO": 999, "REV_AT_EPOCH": 5138, "BSTAR": 0, "MEAN_MOTION_DOT": -2.23e-06, "MEAN_MOTION_DDOT": 0}, "tle": {"line1": "1 37392U 11016A   25343.41655940 -.00000223  00000+0  00000+0 0  9990", "line2": "2 37392   1.3162  85.0937 0003983 178.1199 293.4551  1.00272298 51387"}}, "geometry": {"type": "Point", "coordinates": [-58.83606502699733, -0.7897201274358571]}}]}